[{"OBJECT_NAME":"SAUDISAT 5B","OBJECT_ID":"2018-102C","EPOCH":"2026-03-09T22:59:17.457216","MEAN_MOTION":15.27248504,"ECCENTRICITY":0.00120577,"INCLINATION":97.3281,"RA_OF_ASC_NODE":135.3629,"ARG_OF_PERICENTER":124.0958,"MEAN_ANOMALY":236.1427,"EPHEMERIS_TYPE":0,"CLASSIFICATION_TYPE":"U","NORAD_CAT_ID":43833,"ELEMENT_SET_NO":999,"REV_AT_EPOCH":40064,"BSTAR":0.00024926623,"MEAN_MOTION_DOT":6.596e-5,"MEAN_MOTION_DDOT":0},{"OBJECT_NAME":"STARLINK-35870","OBJECT_ID":"2025-268R","EPOCH":"2026-03-08T11:53:59.419104","MEAN_MOTION":15.27602843,"ECCENTRICITY":1.431e-5,"INCLINATION":43.001,"RA_OF_ASC_NODE":354.1122,"ARG_OF_PERICENTER":225.0235,"MEAN_ANOMALY":135.0605,"EPHEMERIS_TYPE":0,"CLASSIFICATION_TYPE":"U","NORAD_CAT_ID":66572,"ELEMENT_SET_NO":999,"REV_AT_EPOCH":1777,"BSTAR":5.097385e-5,"MEAN_MOTION_DOT":1.142e-5,"MEAN_MOTION_DDOT":0}]
